NORAD_CAT_ID,OBJECT_NAME,OBJECT_TYPE,EPOCH,MEAN_MOTION,ECCENTRICITY,INCLINATION,RA_OF_ASC_NODE,ARG_OF_PERICENTER,MEAN_ANOMALY,BSTAR,MEAN_MOTION_DOT,MEAN_MOTION_DDOT,TLE_LINE0,TLE_LINE1,TLE_LINE2,SEMIMAJOR_AXIS,PERIOD,APOGEE,PERIGEE,DECAYED
53799.0,STARLINK-4710,PAYLOAD,2022-12-18 21:47:14,15.08853021,0.0001520999999999,53.2178,146.8004,73.3304,286.7855,-1.4825999999999992e-05,-5.24e-06,0.0,0 STARLINK-4710,1 53799U 22111AC  22352.90780916 -.00000524  00000-0 -14826-4 0  9992,2 53799  53.2178 146.8004 0001521  73.3304 286.7855 15.08853021 15351,6917.840999999999,95.437,540.758,538.653,0.0
53799.0,STARLINK-4710,PAYLOAD,2022-12-19 16:51:52,15.08847381,0.0001517,53.2177,143.2322,72.7819,287.3339,3.5651e-05,2.8e-06,0.0,0 STARLINK-4710,1 53799U 22111AC  22353.70268708  .00000280  00000-0  35651-4 0  9997,2 53799  53.2177 143.2322 0001517  72.7819 287.3339 15.08847381 16282,6917.858,95.437,540.7719999999998,538.673,0.0
53799.0,STARLINK-4710,PAYLOAD,2022-12-20 10:21:06,15.0884427,0.0001486,53.218,139.961,72.5751,287.5403,8.9696e-05,1.14e-05,0.0,0 STARLINK-4710,1 53799U 22111AC  22354.43132561  .00001140  00000-0  89696-4 0  9999,2 53799  53.2180 139.9610 0001486  72.5751 287.5403 15.08844270 16396,6917.8669999999975,95.437,540.76,538.7040000000002,0.0
53799.0,STARLINK-4710,PAYLOAD,2022-12-20 18:18:02,15.08845384,0.0001467,53.218,138.4744,69.8488,290.2662,2.3186e-05,8.1e-07,0.0,0 STARLINK-4710,1 53799U 22111AC  22354.76252544  .00000081  00000-0  23186-4 0  9994,2 53799  53.2180 138.4744 0001467  69.8488 290.2662 15.08845384 15634,6917.864000000001,95.437,540.744,538.714,0.0
53799.0,STARLINK-4710,PAYLOAD,2022-12-21 10:11:54,15.0883788,0.000148,53.2182,135.5013,70.3775,289.7376,-5.092600000000002e-05,-1.098e-05,0.0,0 STARLINK-4710,1 53799U 22111AC  22355.42493171 -.00001098  00000-0 -50926-4 0  9994,2 53799  53.2182 135.5013 0001480  70.3775 289.7376 15.08837880 15732,6917.887,95.438,540.776,538.7280000000002,0.0
53799.0,STARLINK-4710,PAYLOAD,2022-12-22 02:05:45,15.08833389,0.0001423,53.2181,132.5275,69.477,290.6375,-3.8493e-05,-9e-06,0.0,0 STARLINK-4710,1 53799U 22111AC  22356.08733687 -.00000900  00000-0 -38493-4 0  9992,2 53799  53.2181 132.5275 0001423  69.4770 290.6375 15.08833389 16640,6917.901,95.438,540.75,538.781,0.0
53799.0,STARLINK-4710,PAYLOAD,2022-12-22 19:34:59,15.08843195,0.0001496999999999,53.2182,129.2564,68.7609,291.3543,7.7565e-05,9.47e-06,0.0,0 STARLINK-4710,1 53799U 22111AC  22356.81596897  .00000947  00000-0  77565-4 0  9995,2 53799  53.2182 129.2564 0001497  68.7609 291.3543 15.08843195 15942,6917.871,95.437,540.771,538.7,0.0
53799.0,STARLINK-4710,PAYLOAD,2022-12-23 01:56:32,15.08844775,0.0001534,53.2183,128.0671,68.1694,291.9461,7.9013e-05,9.7e-06,0.0,0 STARLINK-4710,1 53799U 22111AC  22357.08092819  .00000970  00000-0  79013-4 0  9996,2 53799  53.2183 128.0671 0001534  68.1694 291.9461 15.08844775 16793,6917.866,95.437,540.7919999999998,538.67,0.0
53799.0,STARLINK-4710,PAYLOAD,2022-12-23 13:04:14,15.08834101,0.0001444,53.2184,125.9857,66.6692,293.4452,7.2656e-05,8.68e-06,0.0,0 STARLINK-4710,1 53799U 22111AC  22357.54461595  .00000868  00000-0  72656-4 0  9990,2 53799  53.2184 125.9857 0001444  66.6692 293.4452 15.08834101 16864,6917.898,95.438,540.762,538.764,0.0
53799.0,STARLINK-4710,PAYLOAD,2022-12-23 21:01:10,15.08828888,0.0001568,53.2179,124.4987,64.5629,295.5525,0.00021126,3.075e-05,0.0,0 STARLINK-4710,1 53799U 22111AC  22357.87581807  .00003075  00000-0  21126-3 0  9993,2 53799  53.2179 124.4987 0001568  64.5629 295.5525 15.08828888 16106,6917.9140000000025,95.438,540.864,538.695,0.0
53799.0,STARLINK-4710,PAYLOAD,2022-12-24 11:19:38,15.08841766,0.0001555,53.2177,121.8216,67.0859,293.0297,7.9303e-05,9.74e-06,0.0,0 STARLINK-4710,1 53799U 22111AC  22358.47197393  .00000974  00000-0  79303-4 0  9999,2 53799  53.2177 121.8216 0001555  67.0859 293.0297 15.08841766 16197,6917.875,95.437,540.816,538.664,0.0
53799.0,STARLINK-4710,PAYLOAD,2022-12-24 17:41:10,15.08845711,0.0001394,53.2177,120.6325,61.6296,298.4837,0.00013407,1.847e-05,0.0,0 STARLINK-4710,1 53799U 22111AC  22358.73692872  .00001847  00000-0  13407-3 0  9992,2 53799  53.2177 120.6325 0001394  61.6296 298.4837 15.08845711 17049,6917.863,95.437,540.692,538.764,0.0
53799.0,STARLINK-4710,PAYLOAD,2022-12-25 07:59:39,15.08841019,0.0001549,53.2174,117.9567,65.2769,294.8384,-7.6736e-06,-4.1e-06,0.0,0 STARLINK-4710,1 53799U 22111AC  22359.33309490 -.00000410  00000-0 -76736-5 0  9993,2 53799  53.2174 117.9567 0001549  65.2769 294.8384 15.08841019 17134,6917.877,95.437,540.814,538.6709999999998,0.0
53799.0,STARLINK-4710,PAYLOAD,2022-12-25 14:21:12,15.08834596,0.0001561,53.2179,116.7669,66.1988,293.9168,-4.7673e-06,-3.64e-06,0.0,0 STARLINK-4710,1 53799U 22111AC  22359.59805951 -.00000364  00000-0 -47673-5 0  9990,2 53799  53.2179 116.7669 0001561  66.1988 293.9168 15.08834596 16362,6917.897,95.438,540.842,538.682,0.0
53799.0,STARLINK-4710,PAYLOAD,2022-12-26 07:50:26,15.08834057,0.0001336,53.2194,113.4954,67.3264,292.7870000000001,1.8763e-05,1.1e-07,0.0,0 STARLINK-4710,1 53799U 22111AC  22360.32670017  .00000011  00000-0  18763-4 0  9990,2 53799  53.2194 113.4954 0001336  67.3264 292.7870 15.08834057 17281,6917.899,95.438,540.688,538.839,0.0
53799.0,STARLINK-4710,PAYLOAD,2022-12-26 14:11:59,15.0883593,0.0001381,53.2193,112.3063,65.9662,294.1475,2.0853000000000005e-07,-2.85e-06,0.0,0 STARLINK-4710,1 53799U 22111AC  22360.59166011 -.00000285  00000-0  20853-6 0  9992,2 53799  53.2193 112.3063 0001381  65.9662 294.1475 15.08835930 17328,6917.893,95.438,540.7130000000002,538.802,0.0
53799.0,STARLINK-4710,PAYLOAD,2022-12-27 07:41:12,15.08842374,0.000155,53.2196,109.0369,59.5561,300.5584,0.00023843,3.509e-05,0.0,0 STARLINK-4710,1 53799U 22111AC  22361.32028884  .00003509  00000-0  23843-3 0  9999,2 53799  53.2196 109.0369 0001550  59.5561 300.5584 15.08842374 17433,6917.873000000001,95.437,540.81,538.6659999999998,0.0
53799.0,STARLINK-4710,PAYLOAD,2022-12-27 14:02:45,15.08854124,0.0001626,53.2197,107.848,62.6453,297.4704,0.0001209,1.637e-05,0.0,0 STARLINK-4710,1 53799U 22111AC  22361.58524313  .00001637  00000-0  12090-3 0  9997,2 53799  53.2197 107.8480 0001626  62.6453 297.4704 15.08854124 16661,6917.837,95.437,540.827,538.577,0.0
53799.0,STARLINK-4710,PAYLOAD,2022-12-28 05:56:36,15.088477,0.0001601,53.2188,104.874,61.7782,298.3372,0.00017184,2.448e-05,0.0,0 STARLINK-4710,1 53799U 22111AC  22362.24764315  .00002448  00000-0  17184-3 0  9999,2 53799  53.2188 104.8740 0001601  61.7782 298.3372 15.08847700 16769,6917.857,95.437,540.8290000000002,538.614,0.0
53799.0,STARLINK-4710,PAYLOAD,2022-12-28 07:31:59,15.08845565,0.0001575,53.2185,104.5762,61.1245,298.9905,0.00016226,2.296e-05,0.0,0 STARLINK-4710,1 53799U 22111AC  22362.31388494  .00002296  00000-0  16226-3 0  9994,2 53799  53.2185 104.5762 0001575  61.1245 298.9905 15.08845565 17581,6917.863,95.437,540.818,538.639,0.0
53799.0,STARLINK-4710,PAYLOAD,2022-12-29 05:47:25,15.08829308,0.0001488,53.2175,100.4124,51.995,308.1177,-0.00015785,-2.799e-05,0.0,0 STARLINK-4710,1 53799U 22111AC  22363.24126642 -.00002799  00000-0 -15785-3 0  9991,2 53799  53.2175 100.4124 0001488  51.9950 308.1177 15.08829308 16918,6917.913000000001,95.438,540.807,538.749,0.0
53799.0,STARLINK-4710,PAYLOAD,2022-12-29 07:22:48,15.08829639,0.0001569,53.2206,100.1175,66.3667,293.749,-0.00012472,-2.272e-05,0.0,0 STARLINK-4710,1 53799U 22111AC  22363.30750609 -.00002272  00000-0 -12472-3 0  9990,2 53799  53.2206 100.1175 0001569  66.3667 293.7490 15.08829639 17736,6917.9119999999975,95.438,540.862,538.692,0.0
53799.0,STARLINK-4710,PAYLOAD,2022-12-29 13:44:22,15.0881658,0.0001514,53.2192,98.9262,54.2199,305.8933,-0.00024256,-4.144e-05,0.0,0 STARLINK-4710,1 53799U 22111AC  22363.57248073 -.00004144  00000-0 -24256-3 0  9999,2 53799  53.2192  98.9262 0001514  54.2199 305.8933 15.08816580 16969,6917.9519999999975,95.439,540.864,538.77,0.0
53799.0,STARLINK-4710,PAYLOAD,2022-12-30 05:38:13,15.08822369,0.0001531999999999,53.2194,95.9521,63.6969,296.4181,-9.8539e-05,-1.855e-05,0.0,0 STARLINK-4710,1 53799U 22111AC  22364.23488031 -.00001855  00000-0 -98539-4 0  9995,2 53799  53.2194  95.9521 0001532  63.6969 296.4181 15.08822369 17069,6917.934,95.439,540.859,538.739,0.0
53799.0,STARLINK-4710,PAYLOAD,2022-12-30 11:59:45,15.08826198,0.0001581,53.2188,94.7635,50.0391,310.074,0.00014283,1.985e-05,0.0,0 STARLINK-4710,1 53799U 22111AC  22364.49983424  .00001985  00000-0  14283-3 0  9994,2 53799  53.2188  94.7635 0001581  50.0391 310.0740 15.08826198 17101,6917.9230000000025,95.438,540.881,538.694,0.0
53799.0,STARLINK-4710,PAYLOAD,2022-12-30 15:10:31,15.08836787,0.000159,53.219,94.1689,60.2466,299.8684,0.00010871,1.442e-05,0.0,0 STARLINK-4710,1 53799U 22111AC  22364.63231057  .00001442  00000-0  10871-3 0  9995,2 53799  53.2190  94.1689 0001590  60.2466 299.8684 15.08836787 17121,6917.89,95.438,540.855,538.655,0.0
53799.0,STARLINK-4710,PAYLOAD,2022-12-31 05:28:59,15.0886522,0.0001689,53.2174,91.4919,53.9108,306.2041,0.00074753,0.00011637,0.0,0 STARLINK-4710,1 53799U 22111AC  22365.22846537  .00011637  00000-0  74753-3 0  9992,2 53799  53.2174  91.4919 0001689  53.9108 306.2041 15.08865220 17214,6917.803000000001,95.436,540.837,538.5,0.0
53799.0,STARLINK-4710,PAYLOAD,2022-12-31 11:50:31,15.08886033,0.000171,53.2174,90.303,55.6753,304.44,0.0012672,0.00019962,0.0,0 STARLINK-4710,1 53799U 22111AC  22365.49342007  .00019962  00000-0  12672-2 0  9994,2 53799  53.2174  90.3030 0001710  55.6753 304.4400 15.08886033 18064,6917.74,95.435,540.788,538.422,0.0
53799.0,STARLINK-4710,PAYLOAD,2022-12-31 13:25:54,15.08885037,0.0001375999999999,53.2168,90.0067,50.6795,309.4319,0.00090474,0.00014158,0.0,0 STARLINK-4710,1 53799U 22111AC  22365.55965760  .00014158  00000-0  90474-3 0  9997,2 53799  53.2168  90.0067 0001376  50.6795 309.4319 15.08885037 18071,6917.743,95.435,540.56,538.656,0.0
